YAOGAN-39 05A           
1 58557U 23194A   26067.87191563  .00015822  00000+0  65636-3 0  9996
2 58557  35.0016 328.2574 0004592 131.0582 229.0530 15.23021204125052
T1DES 1 (DRAGOON 1)     
1 64542U 25135Q   26068.31050305  .00014527  00000+0  60518-3 0  9997
2 64542  97.4578 184.7906 0003878 148.7870 211.3598 15.23819655 39702
